{"type": "FeatureCollection", "features": [{"type": "Feature", "geometry": {"type": "Polygon", "coordinates": [[[14.119686, 53.757029], [14.353315, 53.248171], [14.074521, 52.981263], [14.4376, 52.62485], [14.685026, 52.089947], [14.607098, 51.745188], [15.016996, 51.106674], [14.570718, 51.002339], [14.307013, 51.117268], [14.056228, 50.926918], [13.338132, 50.733234], [12.966837, 50.484076], [12.240111, 50.266338], [12.415191, 49.969121], [12.521024, 49.547415], [13.031329, 49.307068], [13.595946, 48.877172], [13.243357, 48.416115], [12.884103, 48.289146], [13.025851, 47.637584], [12.932627, 47.467646], [12.62076, 47.672388], [12.141357, 47.703083], [11.426414, 47.523766], [10.544504, 47.566399], [10.402084, 47.302488], [9.896068, 47.580197], [9.594226, 47.525058], [8.522612, 47.830828], [8.317301, 47.61358], [7.466759, 47.620582], [7.593676, 48.333019], [8.099279, 49.017784], [6.65823, 49.201958], [6.18632, 49.463803], [6.242751, 49.902226], [6.043073, 50.128052], [6.156658, 50.803721], [5.988658, 51.851616], [6.589397, 51.852029], [6.84287, 52.22844], [7.092053, 53.144043], [6.90514, 53.482162], [7.100425, 53.693932], [7.936239, 53.748296], [8.121706, 53.527792], [8.800734, 54.020786], [8.572118, 54.395646], [8.526229, 54.962744], [9.282049, 54.830865], [9.921906, 54.983104], [9.93958, 54.596642], [10.950112, 54.363607], [10.939467, 54.008693], [11.956252, 54.196486], [12.51844, 54.470371], [13.647467, 54.075511], [14.119686, 53.757029]]]}, "properties": {"name": "Germany", "iso_a3": "DEU", "status": "PENDING", "status_label": "Allied \u2014 Step 4 pending"}}, {"type": "Feature", "geometry": {"type": "Polygon", "coordinates": [[[9.594226, 47.525058], [9.632932, 47.347601], [9.47997, 47.10281], [9.932448, 46.920728], [10.442701, 46.893546], [10.363378, 46.483571], [9.922837, 46.314899], [9.182882, 46.440215], [8.966306, 46.036932], [8.489952, 46.005151], [8.31663, 46.163642], [7.755992, 45.82449], [7.273851, 45.776948], [6.843593, 45.991147], [6.5001, 46.429673], [6.022609, 46.27299], [6.037389, 46.725779], [6.768714, 47.287708], [6.736571, 47.541801], [7.192202, 47.449766], [7.466759, 47.620582], [8.317301, 47.61358], [8.522612, 47.830828], [9.594226, 47.525058]]]}, "properties": {"name": "Switzerland", "iso_a3": "CHE", "status": "PENDING", "status_label": "Allied \u2014 Step 4 pending"}}, {"type": "Feature", "geometry": {"type": "Polygon", "coordinates": [[[6.90514, 53.482162], [7.092053, 53.144043], [6.84287, 52.22844], [6.589397, 51.852029], [5.988658, 51.851616], [6.156658, 50.803721], [5.606976, 51.037298], [4.973991, 51.475024], [4.047071, 51.267259], [3.314971, 51.345755], [3.315011, 51.345777], [3.830289, 51.620545], [4.705997, 53.091798], [6.074183, 53.510403], [6.90514, 53.482162]]]}, "properties": {"name": "Netherlands", "iso_a3": "NLD", "status": "PENDING", "status_label": "Allied \u2014 Step 4 pending"}}, {"type": "Feature", "geometry": {"type": "Polygon", "coordinates": [[[121.777818, 24.394274], [121.175632, 22.790857], [120.74708, 21.970571], [120.220083, 22.814861], [120.106189, 23.556263], [120.69468, 24.538451], [121.495044, 25.295459], [121.951244, 24.997596], [121.777818, 24.394274]]]}, "properties": {"name": "Taiwan", "iso_a3": "TWN", "status": "PENDING", "status_label": "Allied \u2014 Step 4 pending"}}]}